HAWK-2B                 
1 47508U 21006CZ  26068.67629241  .00009474  00000+0  29651-3 0  9991
2 47508  97.2334 114.1140 0007102 185.9063 174.2098 15.33301353284246
STARLINK-32297          
1 61521U 24183N   26068.48024192  .00000724  00000+0  36568-4 0  9999
2 61521  53.1602 143.1773 0001196  82.8704 277.2432 15.30183595 79627
